{"type": "FeatureCollection", "features": [ {"type": "Feature", "properties": {"norad_id": 35480, "name": "IRIDIUM 33 DEB", "group": "iridium-33-debris", "lat": 27.442600179693756, "lon": -156.87285934327576, "alt_km": 717.8013869924907, "timestamp": "2025-12-12T11:38:31.797668+00:00", "meta": {"OBJECT_NAME": "IRIDIUM 33 DEB", "OBJECT_ID": "1997-051QA", "EPOCH": "2025-12-09T19:59:43.135296", "MEAN_MOTION": 14.49744632, "ECCENTRICITY": 0.00159269, "INCLINATION": 86.357, "RA_OF_ASC_NODE": 26.1722, "ARG_OF_PERICENTER": 113.2937, "MEAN_ANOMALY": 246.9945, "EPHEMERIS_TYPE": 0, "CLASSIFICATION_TYPE": "U", "NORAD_CAT_ID": 35480, "ELEMENT_SET_NO": 999, "REV_AT_EPOCH": 86989, "BSTAR": 0.0009193458, "MEAN_MOTION_DOT": 3.565e-05, "MEAN_MOTION_DDOT": 0}, "tle": {"line1": "1 35480U 97051QA  25343.83313814  .00003565  00000+0  91935-3 0  9998", "line2": "2 35480  86.3570  26.1722 0015926 113.2937 246.9945 14.49744632869893"}}, "geometry": {"type": "Point", "coordinates": [-156.87285934327576, 27.442600179693756]}}, {"type": "Feature", "properties": {"norad_id": 35484, "name": "IRIDIUM 33 DEB", "group": "iridium-33-debris", "lat": -85.49632656386078, "lon": -61.05218260431797, "alt_km": 592.194024067574, "timestamp": "2025-12-12T11:38:31.797678+00:00", "meta": {"OBJECT_NAME": "IRIDIUM 33 DEB", "OBJECT_ID": "1997-051QE", "EPOCH": "2025-12-11T07:11:11.450112", "MEAN_MOTION": 14.98503136, "ECCENTRICITY": 0.00234835, "INCLINATION": 86.3602, "RA_OF_ASC_NODE": 353.4188, "ARG_OF_PERICENTER": 129.6902, "MEAN_ANOMALY": 230.6406, "EPHEMERIS_TYPE": 0, "CLASSIFICATION_TYPE": "U", "NORAD_CAT_ID": 35484, "ELEMENT_SET_NO": 999, "REV_AT_EPOCH": 61994, "BSTAR": 0.0054521834, "MEAN_MOTION_DOT": 0.00066108, "MEAN_MOTION_DDOT": 0}, "tle": {"line1": "1 35484U 97051QE  25345.29943808  .00066108  00000+0  54522-2 0  9998", "line2": "2 35484  86.3602 353.4188 0023483 129.6902 230.6406 14.98503136619942"}}, "geometry": {"type": "Point", "coordinates": [-61.05218260431797, -85.49632656386078]}}, {"type": "Feature", "properties": {"norad_id": 35488, "name": "IRIDIUM 33 DEB", "group": "iridium-33-debris", "lat": 35.804046227309826, "lon": -56.34668618825939, "alt_km": 596.4822564011993, "timestamp": "2025-12-12T11:38:31.797688+00:00", "meta": {"OBJECT_NAME": "IRIDIUM 33 DEB", "OBJECT_ID": "1997-051QJ", "EPOCH": "2025-12-10T07:39:38.233728", "MEAN_MOTION": 14.82954928, "ECCENTRICITY": 0.00301497, "INCLINATION": 86.3246, "RA_OF_ASC_NODE": 301.994, "ARG_OF_PERICENTER": 50.6144, "MEAN_ANOMALY": 309.7742, "EPHEMERIS_TYPE": 0, "CLASSIFICATION_TYPE": "U", "NORAD_CAT_ID": 35488, "ELEMENT_SET_NO": 999, "REV_AT_EPOCH": 88230, "BSTAR": 0.0023681949, "MEAN_MOTION_DOT": 0.0001943, "MEAN_MOTION_DDOT": 0}, "tle": {"line1": "1 35488U 97051QJ  25344.31919252  .00019430  00000+0  23682-2 0  9999", "line2": "2 35488  86.3246 301.9940 0030149  50.6144 309.7742 14.82954928882307"}}, "geometry": {"type": "Point", "coordinates": [-56.34668618825939, 35.804046227309826]}}, {"type": "Feature", "properties": {"norad_id": 35616, "name": "IRIDIUM 33 DEB", "group": "iridium-33-debris", "lat": -16.582382133463167, "lon": 166.9685756397207, "alt_km": 622.6735497432601, "timestamp": "2025-12-12T11:38:31.797698+00:00", "meta": {"OBJECT_NAME": "IRIDIUM 33 DEB", "OBJECT_ID": "1997-051QN", "EPOCH": "2025-12-11T10:26:51.153792", "MEAN_MOTION": 14.81765908, "ECCENTRICITY": 0.00099847, "INCLINATION": 86.3548, "RA_OF_ASC_NODE": 346.3598, "ARG_OF_PERICENTER": 167.762, "MEAN_ANOMALY": 192.3847, "EPHEMERIS_TYPE": 0, "CLASSIFICATION_TYPE": "U", "NORAD_CAT_ID": 35616, "ELEMENT_SET_NO": 999, "REV_AT_EPOCH": 87555, "BSTAR": 0.0032912714, "MEAN_MOTION_DOT": 0.00026074, "MEAN_MOTION_DDOT": 0}, "tle": {"line1": "1 35616U 97051QN  25345.43531428  .00026074  00000+0  32913-2 0  9990", "line2": "2 35616  86.3548 346.3598 0009984 167.7620 192.3847 14.81765908875557"}}, "geometry": {"type": "Point", "coordinates": [166.9685756397207, -16.582382133463167]}}, {"type": "Feature", "properties": {"norad_id": 35618, "name": "IRIDIUM 33 DEB", "group": "iridium-33-debris", "lat": -10.835451617252911, "lon": -7.087854221642329, "alt_km": 704.4901462524904, "timestamp": "2025-12-12T11:38:31.797708+00:00", "meta": {"OBJECT_NAME": "IRIDIUM 33 DEB", "OBJECT_ID": "1997-051QQ", "EPOCH": "2025-12-05T07:42:53.148672", "MEAN_MOTION": 14.52258119, "ECCENTRICITY": 0.00302089, "INCLINATION": 86.3407, "RA_OF_ASC_NODE": 356.7447, "ARG_OF_PERICENTER": 46.3254, "MEAN_ANOMALY": 314.0448, "EPHEMERIS_TYPE": 0, "CLASSIFICATION_TYPE": "U", "NORAD_CAT_ID": 35618, "ELEMENT_SET_NO": 999, "REV_AT_EPOCH": 65286, "BSTAR": 0.00091388234, "MEAN_MOTION_DOT": 3.753e-05, "MEAN_MOTION_DDOT": 0}, "tle": {"line1": "1 35618U 97051QQ  25339.32144848  .00003753  00000+0  91388-3 0  9990", "line2": "2 35618  86.3407 356.7447 0030208  46.3254 314.0448 14.52258119652865"}}, "geometry": {"type": "Point", "coordinates": [-7.087854221642329, -10.835451617252911]}}, {"type": "Feature", "properties": {"norad_id": 35620, "name": "IRIDIUM 33 DEB", "group": "iridium-33-debris", "lat": -13.547299729261951, "lon": -143.31086892809026, "alt_km": 762.3987326523629, "timestamp": "2025-12-12T11:38:31.797718+00:00", "meta": {"OBJECT_NAME": "IRIDIUM 33 DEB", "OBJECT_ID": "1997-051QS", "EPOCH": "2025-12-12T01:41:06.602784", "MEAN_MOTION": 14.3802335, "ECCENTRICITY": 0.0141332, "INCLINATION": 86.3886, "RA_OF_ASC_NODE": 217.736, "ARG_OF_PERICENTER": 261.1948, "MEAN_ANOMALY": 97.3224, "EPHEMERIS_TYPE": 0, "CLASSIFICATION_TYPE": "U", "NORAD_CAT_ID": 35620, "ELEMENT_SET_NO": 999, "REV_AT_EPOCH": 59956, "BSTAR": 0.0071195, "MEAN_MOTION_DOT": 0.00024261, "MEAN_MOTION_DDOT": 0}, "tle": {"line1": "1 35620U 97051QS  25346.07021531  .00024261  00000+0  71195-2 0  9996", "line2": "2 35620  86.3886 217.7360 0141332 261.1948  97.3224 14.38023350599568"}}, "geometry": {"type": "Point", "coordinates": [-143.31086892809026, -13.547299729261951]}}, {"type": "Feature", "properties": {"norad_id": 35622, "name": "IRIDIUM 33 DEB", "group": "iridium-33-debris", "lat": 9.445760071641699, "lon": -95.63828139667275, "alt_km": 550.3243807440604, "timestamp": "2025-12-12T11:38:31.797729+00:00", "meta": {"OBJECT_NAME": "IRIDIUM 33 DEB", "OBJECT_ID": "1997-051QU", "EPOCH": "2025-12-11T12:26:38.806944", "MEAN_MOTION": 15.04466568, "ECCENTRICITY": 0.00064341, "INCLINATION": 86.2027, "RA_OF_ASC_NODE": 264.2046, "ARG_OF_PERICENTER": 344.2324, "MEAN_ANOMALY": 193.3121, "EPHEMERIS_TYPE": 0, "CLASSIFICATION_TYPE": "U", "NORAD_CAT_ID": 35622, "ELEMENT_SET_NO": 999, "REV_AT_EPOCH": 87341, "BSTAR": 0.0089264167, "MEAN_MOTION_DOT": 0.00126966, "MEAN_MOTION_DDOT": 0}, "tle": {"line1": "1 35622U 97051QU  25345.51850471  .00126966  00000+0  89264-2 0  9990", "line2": "2 35622  86.2027 264.2046 0006434 344.2324 193.3121 15.04466568873416"}}, "geometry": {"type": "Point", "coordinates": [-95.63828139667275, 9.445760071641699]}}, {"type": "Feature", "properties": {"norad_id": 35628, "name": "IRIDIUM 33 DEB", "group": "iridium-33-debris", "lat": -52.357913233197785, "lon": -166.07378108237648, "alt_km": 678.5897100123912, "timestamp": "2025-12-12T11:38:31.797739+00:00", "meta": {"OBJECT_NAME": "IRIDIUM 33 DEB", "OBJECT_ID": "1997-051RA", "EPOCH": "2025-12-11T08:24:09.987840", "MEAN_MOTION": 14.67551588, "ECCENTRICITY": 0.00105947, "INCLINATION": 86.3579, "RA_OF_ASC_NODE": 9.695, "ARG_OF_PERICENTER": 347.9048, "MEAN_ANOMALY": 12.191, "EPHEMERIS_TYPE": 0, "CLASSIFICATION_TYPE": "U", "NORAD_CAT_ID": 35628, "ELEMENT_SET_NO": 999, "REV_AT_EPOCH": 86426, "BSTAR": 0.0026538687, "MEAN_MOTION_DOT": 0.00015105, "MEAN_MOTION_DDOT": 0}, "tle": {"line1": "1 35628U 97051RA  25345.35011560  .00015105  00000+0  26539-2 0  9994", "line2": "2 35628  86.3579   9.6950 0010594 347.9048  12.1910 14.67551588864267"}}, "geometry": {"type": "Point", "coordinates": [-166.07378108237648, -52.357913233197785]}}, {"type": "Feature", "properties": {"norad_id": 35631, "name": "IRIDIUM 33 DEB", "group": "iridium-33-debris", "lat": 32.550302862023685, "lon": -161.23834839614182, "alt_km": 720.8572042066235, "timestamp": "2025-12-12T11:38:31.797749+00:00", "meta": {"OBJECT_NAME": "IRIDIUM 33 DEB", "OBJECT_ID": "1997-051RD", "EPOCH": "2025-12-11T08:29:06.309600", "MEAN_MOTION": 14.47305653, "ECCENTRICITY": 0.001885, "INCLINATION": 86.3673, "RA_OF_ASC_NODE": 21.5727, "ARG_OF_PERICENTER": 122.0874, "MEAN_ANOMALY": 253.1598, "EPHEMERIS_TYPE": 0, "CLASSIFICATION_TYPE": "U", "NORAD_CAT_ID": 35631, "ELEMENT_SET_NO": 999, "REV_AT_EPOCH": 87177, "BSTAR": 0.00056547362, "MEAN_MOTION_DOT": 2.093e-05, "MEAN_MOTION_DDOT": 0}, "tle": {"line1": "1 35631U 97051RD  25345.35354525  .00002093  00000+0  56547-3 0  9994", "line2": "2 35631  86.3673  21.5727 0018850 122.0874 253.1598 14.47305653871774"}}, "geometry": {"type": "Point", "coordinates": [-161.23834839614182, 32.550302862023685]}}, {"type": "Feature", "properties": {"norad_id": 35680, "name": "IRIDIUM 33 DEB", "group": "iridium-33-debris", "lat": 38.777025247033805, "lon": -161.50390501713107, "alt_km": 899.603336516052, "timestamp": "2025-12-12T11:38:31.797760+00:00", "meta": {"OBJECT_NAME": "IRIDIUM 33 DEB", "OBJECT_ID": "1997-051RJ", "EPOCH": "2025-12-10T20:56:41.216928", "MEAN_MOTION": 14.2086329, "ECCENTRICITY": 0.015045, "INCLINATION": 86.1029, "RA_OF_ASC_NODE": 22.3487, "ARG_OF_PERICENTER": 284.4866, "MEAN_ANOMALY": 255.1489, "EPHEMERIS_TYPE": 0, "CLASSIFICATION_TYPE": "U", "NORAD_CAT_ID": 35680, "ELEMENT_SET_NO": 999, "REV_AT_EPOCH": 60674, "BSTAR": 0.0056946, "MEAN_MOTION_DOT": 0.00013831, "MEAN_MOTION_DDOT": 0}, "tle": {"line1": "1 35680U 97051RJ  25344.87269927  .00013831  00000+0  56946-2 0  9999", "line2": "2 35680  86.1029  22.3487 0150450 284.4866 255.1489 14.20863290606741"}}, "geometry": {"type": "Point", "coordinates": [-161.50390501713107, 38.777025247033805]}}]}